{
  "norad_id": 54838,
  "name": "STARLINK-5372",
  "history": [
    {
      "epoch": "2026-03-28T12:26:50.701632Z",
      "apogee_km": 486.20630148437704,
      "perigee_km": 484.9345937684802,
      "latitude_deg": 4.004975035036286e-05,
      "longitude_deg": 13.611352871828634,
      "height_km": 485.3038095551683,
      "semi_major_axis_km": 6863.707447626428,
      "eccentricity": 9.264e-05,
      "inclination_deg": 43.0033,
      "raan_deg": 26.2605,
      "arg_perigee_deg": 273.9122,
      "mean_anomaly_deg": 86.1624,
      "mean_motion_rev_day": 15.26738353
    },
    {
      "epoch": "2026-03-29T02:34:41.274624Z",
      "apogee_km": 486.3732751189,
      "perigee_km": 484.44050115999926,
      "latitude_deg": -4.201438772507171e-05,
      "longitude_deg": 157.74741659872518,
      "height_km": 485.67613437663084,
      "semi_major_axis_km": 6863.543888139449,
      "eccentricity": 0.0001408,
      "inclination_deg": 43.0028,
      "raan_deg": 22.9377,
      "arg_perigee_deg": 239.3692,
      "mean_anomaly_deg": 120.702,
      "mean_motion_rev_day": 15.26792927
    },
    {
      "epoch": "2026-03-30T03:42:02.528352Z",
      "apogee_km": 486.299149754067,
      "perigee_km": 484.779531812218,
      "latitude_deg": 9.46481938451064e-06,
      "longitude_deg": 133.97276761739366,
      "height_km": 485.37631483127194,
      "semi_major_axis_km": 6863.676340783142,
      "eccentricity": 0.0001107,
      "inclination_deg": 43.001,
      "raan_deg": 17.0333,
      "arg_perigee_deg": 265.4451,
      "mean_anomaly_deg": 94.6274,
      "mean_motion_rev_day": 15.26748732
    },
    {
      "epoch": "2026-03-31T11:06:12.231648Z",
      "apogee_km": 486.32927510239733,
      "perigee_km": 484.7817869843493,
      "latitude_deg": 2.493808482077208e-05,
      "longitude_deg": 14.262592473616728,
      "height_km": 485.4009679879716,
      "semi_major_axis_km": 6863.6925310433735,
      "eccentricity": 0.00011273,
      "inclination_deg": 43.0003,
      "raan_deg": 9.6532,
      "arg_perigee_deg": 264.8937,
      "mean_anomaly_deg": 95.1786,
      "mean_motion_rev_day": 15.2674333
    },
    {
      "epoch": "2026-04-01T10:39:19.689696Z",
      "apogee_km": 486.3062908946895,
      "perigee_km": 484.8305942245388,
      "latitude_deg": -2.3642459912677883e-05,
      "longitude_deg": 14.478917555161196,
      "height_km": 485.3873452528728,
      "semi_major_axis_km": 6863.705442559614,
      "eccentricity": 0.0001075,
      "inclination_deg": 43.0024,
      "raan_deg": 4.1179,
      "arg_perigee_deg": 266.7266,
      "mean_anomaly_deg": 93.3462,
      "mean_motion_rev_day": 15.26739022
    },
    {
      "epoch": "2026-04-02T10:12:26.726976Z",
      "apogee_km": 486.27556396022646,
      "perigee_km": 484.8281492541455,
      "latitude_deg": 3.2318711296382035e-05,
      "longitude_deg": 14.69741179616471,
      "height_km": 485.320915704605,
      "semi_major_axis_km": 6863.688856607186,
      "eccentricity": 0.00010544,
      "inclination_deg": 43.004,
      "raan_deg": 358.5829,
      "arg_perigee_deg": 270.6234,
      "mean_anomaly_deg": 89.4497,
      "mean_motion_rev_day": 15.26744556
    },
    {
      "epoch": "2026-04-03T01:54:31.201920Z",
      "apogee_km": 486.33475728981284,
      "perigee_km": 484.7452669673439,
      "latitude_deg": 1.9612675781916694e-05,
      "longitude_deg": 134.84402590565605,
      "height_km": 485.3431913911445,
      "semi_major_axis_km": 6863.677012128578,
      "eccentricity": 0.00011579,
      "inclination_deg": 43.0022,
      "raan_deg": 354.893,
      "arg_perigee_deg": 268.0992,
      "mean_anomaly_deg": 91.9727,
      "mean_motion_rev_day": 15.26748508
    },
    {
      "epoch": "2026-04-05T08:51:48.411648Z",
      "apogee_km": 486.2688323281318,
      "perigee_km": 484.8636949959946,
      "latitude_deg": 6.3801010484986175e-06,
      "longitude_deg": 15.350190275398251,
      "height_km": 485.2561008731266,
      "semi_major_axis_km": 6863.703263662062,
      "eccentricity": 0.00010236,
      "inclination_deg": 43.0023,
      "raan_deg": 341.9778,
      "arg_perigee_deg": 277.104,
      "mean_anomaly_deg": 82.9695,
      "mean_motion_rev_day": 15.26739749
    },
    {
      "epoch": "2026-04-06T00:33:53.687520Z",
      "apogee_km": 486.39973119502065,
      "perigee_km": 484.6986352113745,
      "latitude_deg": 3.494761284787544e-05,
      "longitude_deg": 135.4948004757358,
      "height_km": 485.282183347244,
      "semi_major_axis_km": 6863.686183203197,
      "eccentricity": 0.00012392,
      "inclination_deg": 43.0017,
      "raan_deg": 338.2892,
      "arg_perigee_deg": 272.9545,
      "mean_anomaly_deg": 87.1165,
      "mean_motion_rev_day": 15.26745448
    },
    {
      "epoch": "2026-04-07T07:58:02.757504Z",
      "apogee_km": 486.3394648184785,
      "perigee_km": 484.77097387251433,
      "latitude_deg": -3.0318042216013173e-05,
      "longitude_deg": 15.786980233086062,
      "height_km": 485.30464115966794,
      "semi_major_axis_km": 6863.692219345497,
      "eccentricity": 0.00011426,
      "inclination_deg": 43.001,
      "raan_deg": 330.9089,
      "arg_perigee_deg": 271.9922,
      "mean_anomaly_deg": 88.0798,
      "mean_motion_rev_day": 15.26743434
    },
    {
      "epoch": "2026-04-08T07:31:10.091136Z",
      "apogee_km": 486.4044762254216,
      "perigee_km": 484.72094796003967,
      "latitude_deg": 1.4661650189010388e-05,
      "longitude_deg": 16.004420678636905,
      "height_km": 485.3241530783345,
      "semi_major_axis_km": 6863.69971209273,
      "eccentricity": 0.00012264,
      "inclination_deg": 43.0011,
      "raan_deg": 325.3741,
      "arg_perigee_deg": 271.0429,
      "mean_anomaly_deg": 89.0282,
      "mean_motion_rev_day": 15.26740934
    },
    {
      "epoch": "2026-04-08T21:39:02.245248Z",
      "apogee_km": 486.41073498987225,
      "perigee_km": 484.69618511295084,
      "latitude_deg": -1.6549820501265103e-05,
      "longitude_deg": 160.13543090655438,
      "height_km": 485.3032948293829,
      "semi_major_axis_km": 6863.690460051411,
      "eccentricity": 0.0001249,
      "inclination_deg": 43.001,
      "raan_deg": 322.0528,
      "arg_perigee_deg": 271.8008,
      "mean_anomaly_deg": 88.27,
      "mean_motion_rev_day": 15.26744021
    },
    {
      "epoch": "2026-04-10T06:37:22.548288Z",
      "apogee_km": 486.1909373488106,
      "perigee_km": 484.7589133567044,
      "latitude_deg": 5.438915680955829e-05,
      "longitude_deg": 16.448182175878546,
      "height_km": 484.8335644959448,
      "semi_major_axis_km": 6863.611925352758,
      "eccentricity": 0.00010432,
      "inclination_deg": 43.003,
      "raan_deg": 314.3042,
      "arg_perigee_deg": 305.7225,
      "mean_anomaly_deg": 54.353,
      "mean_motion_rev_day": 15.26770225
    },
    {
      "epoch": "2026-04-11T14:01:33.912192Z",
      "apogee_km": 486.7377015362954,
      "perigee_km": 484.3711007411821,
      "latitude_deg": -5.536768327374872e-05,
      "longitude_deg": -103.26996891998773,
      "height_km": 485.29821565481797,
      "semi_major_axis_km": 6863.691401138738,
      "eccentricity": 0.0001724,
      "inclination_deg": 43.0004,
      "raan_deg": 306.9232,
      "arg_perigee_deg": 271.6119,
      "mean_anomaly_deg": 88.4534,
      "mean_motion_rev_day": 15.26743707
    },
    {
      "epoch": "2026-04-12T19:51:31.348224Z",
      "apogee_km": 486.3503156083243,
      "perigee_km": 484.78319476693923,
      "latitude_deg": 2.25745352189235e-05,
      "longitude_deg": 161.00481411682398,
      "height_km": 485.2988351372815,
      "semi_major_axis_km": 6863.703755187631,
      "eccentricity": 0.00011416,
      "inclination_deg": 43.0002,
      "raan_deg": 299.9124,
      "arg_perigee_deg": 273.2565,
      "mean_anomaly_deg": 86.8156,
      "mean_motion_rev_day": 15.26739585
    },
    {
      "epoch": "2026-04-14T20:31:58.277568Z",
      "apogee_km": 486.4561981036277,
      "perigee_km": 484.6730084270994,
      "latitude_deg": -3.222877334036091e-05,
      "longitude_deg": 137.4534756759933,
      "height_km": 485.3607670101761,
      "semi_major_axis_km": 6863.701603265364,
      "eccentricity": 0.0001299,
      "inclination_deg": 43.0001,
      "raan_deg": 288.4723,
      "arg_perigee_deg": 268.7499,
      "mean_anomaly_deg": 91.3203,
      "mean_motion_rev_day": 15.26740303
    },
    {
      "epoch": "2026-04-15T20:05:05.454816Z",
      "apogee_km": 486.48001987650423,
      "perigee_km": 484.64054900427345,
      "latitude_deg": 8.740175140614626e-06,
      "longitude_deg": 137.6712700495238,
      "height_km": 485.37477411751786,
      "semi_major_axis_km": 6863.697284440388,
      "eccentricity": 0.000134,
      "inclination_deg": 43.0003,
      "raan_deg": 282.9372,
      "arg_perigee_deg": 267.649,
      "mean_anomaly_deg": 92.4208,
      "mean_motion_rev_day": 15.26741744
    },
    {
      "epoch": "2026-04-16T19:38:12.435936Z",
      "apogee_km": 486.4960904874688,
      "perigee_km": 484.60994847011534,
      "latitude_deg": 6.860365996569047e-06,
      "longitude_deg": 137.89023814482718,
      "height_km": 485.3532132342698,
      "semi_major_axis_km": 6863.690019478791,
      "eccentricity": 0.0001374,
      "inclination_deg": 43.0007,
      "raan_deg": 277.4025,
      "arg_perigee_deg": 268.5808,
      "mean_anomaly_deg": 91.4886,
      "mean_motion_rev_day": 15.26744168
    },
    {
      "epoch": "2026-04-17T20:45:32.436864Z",
      "apogee_km": 486.52199200054383,
      "perigee_km": 484.602215361243,
      "latitude_deg": -1.0629754623804079e-05,
      "longitude_deg": 114.12125062172173,
      "height_km": 485.3737326820805,
      "semi_major_axis_km": 6863.699103680893,
      "eccentricity": 0.00013985,
      "inclination_deg": 43.001,
      "raan_deg": 271.4986,
      "arg_perigee_deg": 267.926,
      "mean_anomaly_deg": 92.1431,
      "mean_motion_rev_day": 15.26741137
    }
  ]
}